[{"OBJECT_NAME":"STARLINK-6315","OBJECT_ID":"2023-094U","EPOCH":"2026-03-09T22:00:01.999584","MEAN_MOTION":15.06069838,"ECCENTRICITY":3.615e-5,"INCLINATION":43.0006,"RA_OF_ASC_NODE":16.6045,"ARG_OF_PERICENTER":283.2103,"MEAN_ANOMALY":240.5881,"EPHEMERIS_TYPE":0,"CLASSIFICATION_TYPE":"U","NORAD_CAT_ID":57236,"ELEMENT_SET_NO":999,"REV_AT_EPOCH":577,"BSTAR":0.0020929095,"MEAN_MOTION_DOT":0.00031003,"MEAN_MOTION_DDOT":0},{"OBJECT_NAME":"FENGYUN 1C DEB","OBJECT_ID":"1999-025DMH","EPOCH":"2026-03-08T12:22:59.285280","MEAN_MOTION":14.74467635,"ECCENTRICITY":0.01679532,"INCLINATION":98.8961,"RA_OF_ASC_NODE":332.7174,"ARG_OF_PERICENTER":174.5846,"MEAN_ANOMALY":185.7228,"EPHEMERIS_TYPE":0,"CLASSIFICATION_TYPE":"U","NORAD_CAT_ID":35153,"ELEMENT_SET_NO":999,"REV_AT_EPOCH":98481,"BSTAR":0.00043532495,"MEAN_MOTION_DOT":3.561e-5,"MEAN_MOTION_DDOT":0}]
